BEIDOU-2 G8             
1 44231U 19027A   26159.80011288 -.00000230  00000+0  00000+0 0  9998
2 44231   1.6359  74.4917 0010504 284.3017 330.9557  1.00274301 25992
COSMOS 2534 [GLONASS-M] 
1 44299U 19030A   26159.61659668  .00000099  00000+0  00000+0 0  9997
2 44299  64.3678 192.9050 0013272 275.0363 129.0029  2.13102483 54748
BEIDOU-3 IGSO-2         
1 44337U 19035A   26158.61757863 -.00000054  00000+0  00000+0 0  9992
2 44337  55.2450 158.9464 0039801 216.2892 222.9944  1.00269667 25570
NAVSTAR 78 (USA 293)    
1 44506U 19056A   26159.62222071 -.00000059  00000+0  00000+0 0  9998
2 44506  55.6421 331.4837 0061566 197.5351 125.3901  2.00569684 49899
BEIDOU-3 M24            
1 44542U 19061A   26159.11424450  .00000106  00000+0  00000+0 0  9995
2 44542  54.3960 183.0341 0008289 359.2715   0.7843  1.86229351 45623
BEIDOU-3 M23            
1 44543U 19061B   26159.40106862  .00000110  00000+0  00000+0 0  9997
2 44543  54.3944 182.9926 0005548 338.1932 125.8150  1.86227533 45636
EUTELSAT 5 WEST B       
1 44624U 19067A   26159.77049935 -.00000026  00000+0  00000+0 0  9997
2 44624   0.0633 346.9208 0003145  90.8178  91.8083  1.00271997 24351
BEIDOU-3 IGSO-3         
1 44709U 19073A   26136.81046384 -.00000217  00000+0  00000+0 0  9995
2 44709  54.8566 281.2355 0042953 189.4588 170.3676  1.00246251 24144
BEIDOU-3 M22            
1 44793U 19078A   26159.49087598 -.00000058  00000+0  00000+0 0  9997
2 44793  53.9443 300.1340 0006491  49.1992 310.8495  1.86227640 44488
BEIDOU-3 M21            
1 44794U 19078B   26159.09386037 -.00000057  00000+0  00000+0 0  9993
2 44794  53.9180 300.1093 0004420  47.4786 312.5515  1.86228064 44487
COSMOS 2544 [GLONASS-M] 
1 44850U 19088A   26158.64414581 -.00000010  00000+0  00000+0 0  9992
2 44850  65.5607  74.0490 0013653 259.6167 100.2516  2.13102192 50517
BEIDOU-3 M19            
1 44864U 19090A   26157.45598128 -.00000038  00000+0  00000+0 0  9998
2 44864  56.5493  63.1460 0018115 297.5322 241.6390  1.86231867 44034
BEIDOU-3 M20            
1 44865U 19090B   26159.47157170 -.00000044  00000+0  00000+0 0  9998
2 44865  56.5524  63.1141 0015824 311.5803 228.5315  1.86231436 44056
BEIDOU-3 G2             
1 45344U 20017A   26159.78731568 -.00000125  00000+0  00000+0 0  9995
2 45344   2.8465  47.2148 0002536  28.6160 184.8290  1.00273788 23173
COSMOS 2545 [GLONASS-M] 
1 45358U 20018A   26158.83918744 -.00000031  00000+0  00000+0 0  9995
2 45358  64.3612 312.7475 0007948 231.5141 128.4125  2.13102843 48462
BEIDOU-3 G3             
1 45807U 20040A   26159.86464755 -.00000338  00000+0  00000+0 0  9991
2 45807   2.4259  67.4316 0002879 338.5524 273.1203  1.00271857 21980
NAVSTAR 79 (USA 304)    
1 45854U 20041A   26159.51290013 -.00000066  00000+0  00000+0 0  9998
2 45854  56.6637  29.2806 0063551 204.6446 338.1144  2.00558916 43865
GALAXY 30 (G-30)        
1 46114U 20056C   26159.74671781  .00000053  00000+0  00000+0 0  9999
2 46114   0.0161 305.4442 0002187 127.9721 327.5322  1.00273026 21205
COSMOS 2547 [GLONASS-K] 
1 46805U 20075A   26156.21307741  .00000069  00000+0  00000+0 0  9995
2 46805  64.5987 192.8757 0009155 239.4130 120.5675  2.13100365 43650
NAVSTAR 80 (USA 309)    
1 46826U 20078A   26159.41057262  .00000059  00000+0  00000+0 0  9995
2 46826  53.9810 211.1349 0073179 206.9059 238.0164  2.00564886 41337
NAVSTAR 81 (USA 319)    
1 48859U 21054A   26159.01558419 -.00000060  00000+0  00000+0 0  9997
2 48859  55.1794 332.8289 0025106 228.6051 117.2821  2.00569684 36562
QZS-1R (MICHIBIKI-1R)   
1 49336U 21096A   26159.65389683 -.00000231  00000+0  00000+0 0  9999
2 49336  37.4439  79.7113 0754310 271.6148 275.6279  1.00258746 16923
GSAT0223 (GALILEO 27)   
1 49809U 21116A   26158.90513906 -.00000062  00000+0  00000+0 0  9993
2 49809  57.1628 341.9264 0001255 184.9804 358.2440  1.70476094 28023
GSAT0224 (GALILEO 28)   
1 49810U 21116B   26159.30412110 -.00000062  00000+0  00000+0 0  9995
2 49810  57.1644 341.9144 0000971 150.8556  29.8565  1.70476102 28052
COSMOS 2557 [GLONASS-K] 
1 52984U 22075A   26159.66227104 -.00000033  00000+0  00000+0 0  9990
2 52984  64.3022 314.7857 0010227 275.3333  84.5486  2.13102172 30535
COSMOS 2559 [GLONASS-K] 
1 54031U 22130A   26157.13557347 -.00000032  00000+0  00000+0 0  9991
2 54031  64.2805 314.9582 0012373 177.2217 182.7817  2.13101704 28457
COSMOS 2564 [GLONASS-M] 
1 54377U 22161A   26159.32518774  .00000096  00000+0  00000+0 0  9991
2 54377  64.7409 193.0060 0012080 224.3467 135.6256  2.13102033 27446
NAVSTAR 82 (USA 343)    
1 55268U 23009A   26158.23864182  .00000101  00000+0  00000+0 0  9996
2 55268  55.1217 148.9102 0006192 318.0671 224.9740  2.00572185 25047
BEIDOU-3 G4             
1 56564U 23066A   26159.79924620 -.00000266  00000+0  00000+0 0  9998
2 56564   0.4971 329.1915 0004412 170.2709 185.4123  1.00266602 11308
NVS-01 (IRNSS-1J)       
1 56759U 23076A   26159.79716619 -.00000318  00000+0  00000+0 0  9990
2 56759   2.1870 244.7389 0002998  40.1474  28.8611  1.00269421 11033
COSMOS 2569 [GLONASS-K2]
1 57517U 23114A   26159.33752558 -.00000016  00000+0  00000+0 0  9993
2 57517  65.2973  72.9189 0011008 296.8440  63.0658  2.13103725 22071
